NORAD_CAT_ID,OBJECT_NAME,OBJECT_TYPE,EPOCH,MEAN_MOTION,ECCENTRICITY,INCLINATION,RA_OF_ASC_NODE,ARG_OF_PERICENTER,MEAN_ANOMALY,BSTAR,MEAN_MOTION_DOT,MEAN_MOTION_DDOT,TLE_LINE0,TLE_LINE1,TLE_LINE2,SEMIMAJOR_AXIS,PERIOD,APOGEE,PERIGEE,DECAYED
54204.0,STARLINK-5241,PAYLOAD,2024-02-28 07:43:58,15.08840857,0.0001311,53.2173,77.3262,92.1567,267.9575,0.00018501,2.658e-05,0.0,0 STARLINK-5241,1 54204U 22141AZ  24059.32221040  .00002658  00000-0  18501-3 0  9998,2 54204  53.2173  77.3262 0001311  92.1567 267.9575 15.08840857 74234,6917.878,95.438,540.65,538.836,0.0
54204.0,STARLINK-5241,PAYLOAD,2024-02-29 10:45:32,15.08840147,0.000161,53.2168,72.2697,90.7786,269.3391,0.00010311,1.353e-05,0.0,0 STARLINK-5241,1 54204U 22141AZ  24060.44829413  .00001353  00000-0  10311-3 0  9993,2 54204  53.2168  72.2697 0001610  90.7786 269.3391 15.08840147 74631,6917.88,95.438,540.859,538.631,0.0
54204.0,STARLINK-5241,PAYLOAD,2024-03-01 04:14:47,15.0883753,0.0001748,53.2173,68.9979,99.2125,260.9064,8.0467e-06,-1.6e-06,0.0,0 STARLINK-5241,1 54204U 22141AZ  24061.17693919 -.00000160  00000-0  80467-5 0  9991,2 54204  53.2173  68.9979 0001748  99.2125 260.9064 15.08837530 74743,6917.888,95.438,540.962,538.544,0.0
54204.0,STARLINK-5241,PAYLOAD,2024-03-01 07:25:33,15.08841498,0.0001569,53.2164,68.4048,90.9508,269.1664,4.6235e-05,4.48e-06,0.0,0 STARLINK-5241,1 54204U 22141AZ  24061.30941669  .00000448  00000-0  46235-4 0  9996,2 54204  53.2164  68.4048 0001569  90.9508 269.1664 15.08841498 74531,6917.876,95.437,540.826,538.655,0.0
54204.0,STARLINK-5241,PAYLOAD,2024-03-01 16:57:52,15.0883921,0.0001538,53.2162,66.62,89.0335,271.0834,6.1506e-05,6.91e-06,0.0,0 STARLINK-5241,1 54204U 22141AZ  24061.70685811  .00000691  00000-0  61506-4 0  9992,2 54204  53.2162  66.6200 0001538  89.0335 271.0834 15.08839210 74598,6917.883,95.438,540.812,538.684,0.0
54204.0,STARLINK-5241,PAYLOAD,2024-03-02 05:40:57,15.08838057,0.0001583,53.2165,64.2435,97.2109,262.9063,7.659e-05,9.31e-06,0.0,0 STARLINK-5241,1 54204U 22141AZ  24062.23678043  .00000931  00000-0  76590-4 0  9996,2 54204  53.2165  64.2435 0001583  97.2109 262.9063 15.08838057 74901,6917.886,95.438,540.846,538.656,0.0
54204.0,STARLINK-5241,PAYLOAD,2024-03-02 16:48:39,15.08843064,0.0001562,53.2172,62.1621,95.8646,264.2524,8.157e-05,1.011e-05,0.0,0 STARLINK-5241,1 54204U 22141AZ  24062.70045775  .00001011  00000-0  81570-4 0  9992,2 54204  53.2172  62.1621 0001562  95.8646 264.2524 15.08843064 74743,6917.871,95.437,540.817,538.655,0.0
54204.0,STARLINK-5241,PAYLOAD,2024-03-03 10:17:54,15.08840805,0.0001734,53.2189,58.8891,96.2209,263.898,9.6299e-05,1.245e-05,0.0,0 STARLINK-5241,1 54204U 22141AZ  24063.42910171  .00001245  00000-0  96299-4 0  9996,2 54204  53.2189  58.8891 0001734  96.2209 263.8980 15.08840805 75082,6917.878,95.438,540.942,538.543,0.0
54204.0,STARLINK-5241,PAYLOAD,2024-03-04 06:57:54,15.0884947,0.0001829,53.2188,55.0224,94.1528,265.9674,0.00013042,1.789e-05,0.0,0 STARLINK-5241,1 54204U 22141AZ  24064.29021571  .00001789  00000-0  13042-3 0  9996,2 54204  53.2188  55.0224 0001829  94.1528 265.9674 15.08849470 74984,6917.851,95.437,540.982,538.451,0.0
54204.0,STARLINK-5241,PAYLOAD,2024-03-04 16:30:13,15.0884038,0.0001915,53.2196,53.2382,85.9228,274.1983,4.3957e-05,4.11e-06,0.0,0 STARLINK-5241,1 54204U 22141AZ  24064.68766117  .00000411  00000-0  43957-4 0  9991,2 54204  53.2196  53.2382 0001915  85.9228 274.1983 15.08840380 75278,6917.879,95.438,541.069,538.419,0.0
54204.0,STARLINK-5241,PAYLOAD,2024-03-05 03:37:56,15.08828256,0.0001855,53.2189,51.1541,91.7336,268.3868,-6.5266e-05,-1.326e-05,0.0,0 STARLINK-5241,1 54204U 22141AZ  24065.15134869 -.00001326  00000-0 -65266-4 0  9992,2 54204  53.2189  51.1541 0001855  91.7336 268.3868 15.08828256 75345,6917.916,95.438,541.065,538.498,0.0
54204.0,STARLINK-5241,PAYLOAD,2024-03-05 05:13:20,15.08830246,0.0001846,53.2201,50.8583,90.4352,269.6852,-2.9771e-05,-7.62e-06,0.0,0 STARLINK-5241,1 54204U 22141AZ  24065.21759330 -.00000762  00000-0 -29771-4 0  9999,2 54204  53.2201  50.8583 0001846  90.4352 269.6852 15.08830246 75121,6917.91,95.438,541.052,538.498,0.0
54204.0,STARLINK-5241,PAYLOAD,2024-03-06 03:28:43,15.08844428,0.0001416,53.2158,46.6981,90.8556,269.2598,0.00015676,2.208e-05,0.0,0 STARLINK-5241,1 54204U 22141AZ  24066.14494424  .00002208  00000-0  15676-3 0  9995,2 54204  53.2158  46.6981 0001416  90.8556 269.2598 15.08844428 75490,6917.867,95.437,540.711,538.752,0.0
54204.0,STARLINK-5241,PAYLOAD,2024-03-06 08:14:52,15.08852927,0.0001356,53.2161,45.8052,105.2296,254.8846,0.0002107,3.068e-05,0.0,0 STARLINK-5241,1 54204U 22141AZ  24066.34365967  .00003068  00000-0  21070-3 0  9996,2 54204  53.2161  45.8052 0001356 105.2296 254.8846 15.08852927 75296,6917.841,95.437,540.644,538.768,0.0
54204.0,STARLINK-5241,PAYLOAD,2024-03-07 03:19:30,15.08839281,0.0001331,53.2173,42.2353,105.2218,254.8921,0.00027744,4.13e-05,0.0,0 STARLINK-5241,1 54204U 22141AZ  24067.13854695  .00004130  00000-0  27744-3 0  9990,2 54204  53.2173  42.2353 0001331 105.2218 254.8921 15.08839281 75642,6917.883,95.438,540.668,538.827,0.0
54204.0,STARLINK-5241,PAYLOAD,2024-03-07 08:05:39,15.08844805,0.0001564,53.218,41.3409,110.2388,249.8773,0.0002169,3.166e-05,0.0,0 STARLINK-5241,1 54204U 22141AZ  24067.33726360  .00003166  00000-0  21690-3 0  9991,2 54204  53.2180  41.3409 0001564 110.2388 249.8773 15.08844805 75449,6917.866,95.437,540.813,538.649,0.0
54204.0,STARLINK-5241,PAYLOAD,2024-03-08 04:45:40,15.08841813,0.0001388,53.2184,37.479,97.2956,262.8194,3.8615e-05,3.27e-06,0.0,0 STARLINK-5241,1 54204U 22141AZ  24068.19838617  .00000327  00000-0  38615-4 0  9997,2 54204  53.2184  37.4790 0001388  97.2956 262.8194 15.08841813 75809,6917.875,95.437,540.7,538.78,0.0
54204.0,STARLINK-5241,PAYLOAD,2024-03-08 14:17:58,15.08848009,0.0001436,53.2192,35.6948,97.2207,262.8948,3.9021e-05,3.33e-06,0.0,0 STARLINK-5241,1 54204U 22141AZ  24068.59582042  .00000333  00000-0  39021-4 0  9998,2 54204  53.2192  35.6948 0001436  97.2207 262.8948 15.08848009 75638,6917.856,95.437,540.714,538.728,0.0
54204.0,STARLINK-5241,PAYLOAD,2024-03-08 20:39:33,15.08818898,0.0001433,53.2181,34.5027,89.2482,270.8675,-0.00012686,-2.305e-05,0.0,0 STARLINK-5241,1 54204U 22141AZ  24068.86080421 -.00002305  00000-0 -12686-3 0  9992,2 54204  53.2181  34.5027 0001433  89.2482 270.8675 15.08818898 75678,6917.945,95.439,540.801,538.819,0.0
54204.0,STARLINK-5241,PAYLOAD,2024-03-09 14:08:45,15.08849674,0.0001327,53.2188,31.2348,92.4286,267.6858,6.3956e-05,7.3e-06,0.0,0 STARLINK-5241,1 54204U 22141AZ  24069.58941991  .00000730  00000-0  63956-4 0  9995,2 54204  53.2188  31.2348 0001327  92.4286 267.6858 15.08849674 75780,6917.851,95.437,540.634,538.798,0.0
54204.0,STARLINK-5241,PAYLOAD,2024-03-09 20:30:19,15.08835951,0.000175,53.2188,30.0464,91.7153,268.404,8.2186e-05,1.02e-05,0.0,0 STARLINK-5241,1 54204U 22141AZ  24069.85439160  .00001020  00000-0  82186-4 0  9994,2 54204  53.2188  30.0464 0001750  91.7153 268.4040 15.08835951 75821,6917.893,95.438,540.968,538.547,0.0
54204.0,STARLINK-5241,PAYLOAD,2024-03-10 04:27:14,15.08840572,0.0001347,53.2185,28.5588,92.8287,267.2859,0.00011868,1.601e-05,0.0,0 STARLINK-5241,1 54204U 22141AZ  24070.18558822  .00001601  00000-0  11868-3 0  9992,2 54204  53.2185  28.5588 0001347  92.8287 267.2859 15.08840572 76101,6917.879,95.438,540.675,538.812,0.0
54204.0,STARLINK-5241,PAYLOAD,2024-03-10 20:21:06,15.08838072,0.0001406,53.2181,25.5862,96.7151,263.4001,0.00017381,2.479e-05,0.0,0 STARLINK-5241,1 54204U 22141AZ  24070.84798936  .00002479  00000-0  17381-3 0  9997,2 54204  53.2181  25.5862 0001406  96.7151 263.4001 15.08838072 75971,6917.886,95.438,540.724,538.779,0.0
54204.0,STARLINK-5241,PAYLOAD,2024-03-11 04:18:02,15.08837474,0.000139,53.2181,24.0993,95.3645,264.7506,7.5837e-05,9.19e-06,0.0,0 STARLINK-5241,1 54204U 22141AZ  24071.17919069  .00000919  00000-0  75837-4 0  9994,2 54204  53.2181  24.0993 0001390  95.3645 264.7506 15.08837474 76256,6917.888,95.438,540.715,538.792,0.0
54204.0,STARLINK-5241,PAYLOAD,2024-03-11 13:50:20,15.08849086,0.0001399,53.2179,22.3123,77.6024,282.5125,0.00013702,1.894e-05,0.0,0 STARLINK-5241,1 54204U 22141AZ  24071.57662490  .00001894  00000-0  13702-3 0  9996,2 54204  53.2179  22.3123 0001399  77.6024 282.5125 15.08849086 76080,6917.853,95.437,540.685,538.75,0.0
54204.0,STARLINK-5241,PAYLOAD,2024-03-12 04:08:49,15.08836546,0.0001449,53.2181,19.6379,83.9311,276.1846,7.5012e-06,-1.69e-06,0.0,0 STARLINK-5241,1 54204U 22141AZ  24072.17279303 -.00000169  00000-0  75012-5 0  9999,2 54204  53.2181  19.6379 0001449  83.9311 276.1846 15.08836546 76402,6917.891,95.438,540.758,538.754,0.0
54204.0,STARLINK-5241,PAYLOAD,2024-03-12 13:41:07,15.08846041,0.0001488,53.2188,17.8545,85.3979,274.7183,0.00015858,2.237e-05,0.0,0 STARLINK-5241,1 54204U 22141AZ  24072.57022861  .00002237  00000-0  15858-3 0  9995,2 54204  53.2188  17.8545 0001488  85.3979 274.7183 15.08846041 76468,6917.862,95.437,540.756,538.698,0.0
54204.0,STARLINK-5241,PAYLOAD,2024-03-13 13:31:54,15.08850087,0.000162,53.2198,13.3893,101.8117,258.3057,0.00016696,2.371e-05,0.0,0 STARLINK-5241,1 54204U 22141AZ  24073.56382703  .00002371  00000-0  16696-3 0  9999,2 54204  53.2198  13.3893 0001620 101.8117 258.3057 15.08850087 76386,6917.85,95.437,540.835,538.594,0.0
54204.0,STARLINK-5241,PAYLOAD,2024-03-13 19:53:27,15.08844402,0.0001891,53.2209,12.2012,101.5255,258.595,0.00021103,3.072e-05,0.0,0 STARLINK-5241,1 54204U 22141AZ  24073.82879100  .00003072  00000-0  21103-3 0  9998,2 54204  53.2209  12.2012 0001891 101.5255 258.5950 15.08844402 76658,6917.867,95.437,541.04,538.424,0.0
54204.0,STARLINK-5241,PAYLOAD,2024-03-13 23:04:13,15.08846191,0.0001796,53.2203,11.6076,100.9003,259.2191,0.00022563,3.305e-05,0.0,0 STARLINK-5241,1 54204U 22141AZ  24073.96126959  .00003305  00000-0  22563-3 0  9990,2 54204  53.2203  11.6076 0001796 100.9003 259.2191 15.08846191 76442,6917.861,95.437,540.969,538.484,0.0
